{
  "type": "FeatureCollection",
  "features": [
    {
      "type": "Feature",
      "properties": {
        "norad_id": 30847,
        "name": "FENGYUN 1C DEB",
        "group": "fengyun-1c-debris",
        "lat": -59.15379819752923,
        "lon": 153.9501431400987,
        "alt_km": 813.3649079781171,
        "timestamp": "2025-12-04T17:48:40.444823+00:00",
        "meta_object_name": "FENGYUN 1C DEB",
        "meta_object_id": "1999-025AWH",
        "meta_epoch": "2025-12-04T03:07:27.393888",
        "meta_mean_motion": 14.16922242,
        "meta_eccentricity": 0.00652957,
        "meta_inclination": 98.7317,
        "meta_ra_of_asc_node": 138.4373,
        "meta_arg_of_pericenter": 353.0791,
        "meta_mean_anomaly": 67.4706,
        "meta_ephemeris_type": 0,
        "meta_classification_type": "U",
        "meta_norad_cat_id": 30847,
        "meta_element_set_no": 999,
        "meta_rev_at_epoch": 95933,
        "meta_bstar": 0.0035299443,
        "meta_mean_motion_dot": 7.195e-05,
        "meta_mean_motion_ddot": 0,
        "tle_line1": "1 30847U 99025AWH 25338.13017817  .00007195  00000+0  35299-2 0  9997",
        "tle_line2": "2 30847  98.7317 138.4373 0065295 353.0791  67.4706 14.16922242959335"
      },
      "geometry": {
        "type": "Point",
        "coordinates": [
          153.9501431400987,
          -59.15379819752923
        ]
      }
    },
    {
      "type": "Feature",
      "properties": {
        "norad_id": 30848,
        "name": "FENGYUN 1C DEB",
        "group": "fengyun-1c-debris",
        "lat": -74.88367115043268,
        "lon": -43.016760827495936,
        "alt_km": 790.2009398083283,
        "timestamp": "2025-12-04T17:48:40.444833+00:00",
        "meta_object_name": "FENGYUN 1C DEB",
        "meta_object_id": "1999-025AWJ",
        "meta_epoch": "2025-12-03T12:09:01.358208",
        "meta_mean_motion": 14.34385338,
        "meta_eccentricity": 0.0044139,
        "meta_inclination": 99.0608,
        "meta_ra_of_asc_node": 171.8981,
        "meta_arg_of_pericenter": 2.3461,
        "meta_mean_anomaly": 357.7922,
        "meta_ephemeris_type": 0,
        "meta_classification_type": "U",
        "meta_norad_cat_id": 30848,
        "meta_element_set_no": 999,
        "meta_rev_at_epoch": 97174,
        "meta_bstar": 0.0016780739,
        "meta_mean_motion_dot": 4.728e-05,
        "meta_mean_motion_ddot": 0,
        "tle_line1": "1 30848U 99025AWJ 25337.50626572  .00004728  00000+0  16781-2 0  9996",
        "tle_line2": "2 30848  99.0608 171.8981 0044139   2.3461 357.7922 14.34385338971744"
      },
      "geometry": {
        "type": "Point",
        "coordinates": [
          -43.016760827495936,
          -74.88367115043268
        ]
      }
    },
    {
      "type": "Feature",
      "properties": {
        "norad_id": 30849,
        "name": "FENGYUN 1C DEB",
        "group": "fengyun-1c-debris",
        "lat": 39.09239470879286,
        "lon": 31.14077756155265,
        "alt_km": 792.0202792206801,
        "timestamp": "2025-12-04T17:48:40.444843+00:00",
        "meta_object_name": "FENGYUN 1C DEB",
        "meta_object_id": "1999-025AWK",
        "meta_epoch": "2025-12-03T10:04:06.299904",
        "meta_mean_motion": 14.18776336,
        "meta_eccentricity": 0.00484606,
        "meta_inclination": 99.0493,
        "meta_ra_of_asc_node": 37.2311,
        "meta_arg_of_pericenter": 33.5653,
        "meta_mean_anomaly": 94.4513,
        "meta_ephemeris_type": 0,
        "meta_classification_type": "U",
        "meta_norad_cat_id": 30849,
        "meta_element_set_no": 999,
        "meta_rev_at_epoch": 96240,
        "meta_bstar": 0.0018491535,
        "meta_mean_motion_dot": 3.843e-05,
        "meta_mean_motion_ddot": 0,
        "tle_line1": "1 30849U 99025AWK 25337.41951736  .00003843  00000+0  18492-2 0  9998",
        "tle_line2": "2 30849  99.0493  37.2311 0048460  33.5653  94.4513 14.18776336962407"
      },
      "geometry": {
        "type": "Point",
        "coordinates": [
          31.14077756155265,
          39.09239470879286
        ]
      }
    },
    {
      "type": "Feature",
      "properties": {
        "norad_id": 30850,
        "name": "FENGYUN 1C DEB",
        "group": "fengyun-1c-debris",
        "lat": 44.33759051527888,
        "lon": -163.60035373208186,
        "alt_km": 913.6001972014665,
        "timestamp": "2025-12-04T17:48:40.444853+00:00",
        "meta_object_name": "FENGYUN 1C DEB",
        "meta_object_id": "1999-025AWL",
        "meta_epoch": "2025-12-04T03:03:11.339712",
        "meta_mean_motion": 14.16178798,
        "meta_eccentricity": 0.01098713,
        "meta_inclination": 98.3946,
        "meta_ra_of_asc_node": 204.1159,
        "meta_arg_of_pericenter": 223.1462,
        "meta_mean_anomaly": 288.7106,
        "meta_ephemeris_type": 0,
        "meta_classification_type": "U",
        "meta_norad_cat_id": 30850,
        "meta_element_set_no": 999,
        "meta_rev_at_epoch": 95676,
        "meta_bstar": 0.0042872734,
        "meta_mean_motion_dot": 8.966e-05,
        "meta_mean_motion_ddot": 0,
        "tle_line1": "1 30850U 99025AWL 25338.12721458  .00008966  00000+0  42873-2 0  9996",
        "tle_line2": "2 30850  98.3946 204.1159 0109871 223.1462 288.7106 14.16178798956762"
      },
      "geometry": {
        "type": "Point",
        "coordinates": [
          -163.60035373208186,
          44.33759051527888
        ]
      }
    },
    {
      "type": "Feature",
      "properties": {
        "norad_id": 30852,
        "name": "FENGYUN 1C DEB",
        "group": "fengyun-1c-debris",
        "lat": -20.404192085876193,
        "lon": 173.44486044917193,
        "alt_km": 841.590051283396,
        "timestamp": "2025-12-04T17:48:40.444865+00:00",
        "meta_object_name": "FENGYUN 1C DEB",
        "meta_object_id": "1999-025AWN",
        "meta_epoch": "2025-12-03T11:54:38.783808",
        "meta_mean_motion": 14.10259193,
        "meta_eccentricity": 0.00556181,
        "meta_inclination": 98.7343,
        "meta_ra_of_asc_node": 355.5132,
        "meta_arg_of_pericenter": 261.1664,
        "meta_mean_anomaly": 98.3207,
        "meta_ephemeris_type": 0,
        "meta_classification_type": "U",
        "meta_norad_cat_id": 30852,
        "meta_element_set_no": 999,
        "meta_rev_at_epoch": 96252,
        "meta_bstar": 0.00068709601,
        "meta_mean_motion_dot": 1.192e-05,
        "meta_mean_motion_ddot": 0,
        "tle_line1": "1 30852U 99025AWN 25337.49628222  .00001192  00000+0  68710-3 0  9995",
        "tle_line2": "2 30852  98.7343 355.5132 0055618 261.1664  98.3207 14.10259193962527"
      },
      "geometry": {
        "type": "Point",
        "coordinates": [
          173.44486044917193,
          -20.404192085876193
        ]
      }
    },
    {
      "type": "Feature",
      "properties": {
        "norad_id": 30856,
        "name": "FENGYUN 1C DEB",
        "group": "fengyun-1c-debris",
        "lat": 47.46502436899108,
        "lon": 154.74941658122967,
        "alt_km": 787.8883106459971,
        "timestamp": "2025-12-04T17:48:40.444875+00:00",
        "meta_object_name": "FENGYUN 1C DEB",
        "meta_object_id": "1999-025AWS",
        "meta_epoch": "2025-12-03T11:48:50.114880",
        "meta_mean_motion": 14.45605861,
        "meta_eccentricity": 0.00897975,
        "meta_inclination": 98.1996,
        "meta_ra_of_asc_node": 162.5837,
        "meta_arg_of_pericenter": 266.8034,
        "meta_mean_anomaly": 119.823,
        "meta_ephemeris_type": 0,
        "meta_classification_type": "U",
        "meta_norad_cat_id": 30856,
        "meta_element_set_no": 999,
        "meta_rev_at_epoch": 96392,
        "meta_bstar": 0.0065275145,
        "meta_mean_motion_dot": 0.00024274,
        "meta_mean_motion_ddot": 0,
        "tle_line1": "1 30856U 99025AWS 25337.49224670  .00024274  00000+0  65275-2 0  9996",
        "tle_line2": "2 30856  98.1996 162.5837 0089797 266.8034 119.8230 14.45605861963920"
      },
      "geometry": {
        "type": "Point",
        "coordinates": [
          154.74941658122967,
          47.46502436899108
        ]
      }
    },
    {
      "type": "Feature",
      "properties": {
        "norad_id": 30857,
        "name": "FENGYUN 1C DEB",
        "group": "fengyun-1c-debris",
        "lat": 80.31525472803156,
        "lon": -99.86399641403713,
        "alt_km": 733.889107803323,
        "timestamp": "2025-12-04T17:48:40.444885+00:00",
        "meta_object_name": "FENGYUN 1C DEB",
        "meta_object_id": "1999-025AWT",
        "meta_epoch": "2025-11-30T10:47:49.835040",
        "meta_mean_motion": 14.5075264,
        "meta_eccentricity": 0.0044105,
        "meta_inclination": 98.9754,
        "meta_ra_of_asc_node": 323.3958,
        "meta_arg_of_pericenter": 331.9164,
        "meta_mean_anomaly": 27.965,
        "meta_ephemeris_type": 0,
        "meta_classification_type": "U",
        "meta_norad_cat_id": 30857,
        "meta_element_set_no": 999,
        "meta_rev_at_epoch": 96545,
        "meta_bstar": 0.0067744434,
        "meta_mean_motion_dot": 0.00027044,
        "meta_mean_motion_ddot": 0,
        "tle_line1": "1 30857U 99025AWT 25334.44988235  .00027044  00000+0  67744-2 0  9994",
        "tle_line2": "2 30857  98.9754 323.3958 0044105 331.9164  27.9650 14.50752640965453"
      },
      "geometry": {
        "type": "Point",
        "coordinates": [
          -99.86399641403713,
          80.31525472803156
        ]
      }
    }
  ]
}